[
    {
        "Altitude(m)": 706920.9271048714,
        "Argument of Periapsis(deg)": 0.010251109067964361,
        "Eccentricity": 0.0,
        "Inclination(deg)": 45.0,
        "Latitude(deg)": 43.4362411858442,
        "Longitude(deg)": 174.65662971506515,
        "Mean Anomaly(deg)": 75.83439498273273,
        "RAAN(deg)": 204.99032325268763,
        "Satellite Name": "Constellation 1 906",
        "Satellite Number": 906,
        "Semi-Major Axis(m)": 7083131.272910544,
        "Time(s)": 171
    },
    {
        "Altitude(m)": 706924.1605581004,
        "Argument of Periapsis(deg)": 0.010311057074209765,
        "Eccentricity": 0.0,
        "Inclination(deg)": 45.0,
        "Latitude(deg)": 43.450679965400106,
        "Longitude(deg)": 174.73357127375542,
        "Mean Anomaly(deg)": 75.89509612298265,
        "RAAN(deg)": 204.99026666352202,
        "Satellite Name": "Constellation 1 906",
        "Satellite Number": 906,
        "Semi-Major Axis(m)": 7083131.272910544,
        "Time(s)": 172
    },
    {
        "Altitude(m)": 706927.3816279494,
        "Argument of Periapsis(deg)": 0.010371005080455171,
        "Eccentricity": 0.0,
        "Inclination(deg)": 45.0,
        "Latitude(deg)": 43.46506125735369,
        "Longitude(deg)": 174.81055129893974,
        "Mean Anomaly(deg)": 75.95579726323253,
        "RAAN(deg)": 204.99021007435647,
        "Satellite Name": "Constellation 1 906",
        "Satellite Number": 906,
        "Semi-Major Axis(m)": 7083131.272910544,
        "Time(s)": 173
    },
    {
        "Altitude(m)": 706930.5902954226,
        "Argument of Periapsis(deg)": 0.010430953086700577,
        "Eccentricity": 0.0,
        "Inclination(deg)": 45.0,
        "Latitude(deg)": 43.479385006101325,
        "Longitude(deg)": 174.8875696745803,
        "Mean Anomaly(deg)": 76.01649840348242,
        "RAAN(deg)": 204.99015348519092,
        "Satellite Name": "Constellation 1 906",
        "Satellite Number": 906,
        "Semi-Major Axis(m)": 7083131.272910544,
        "Time(s)": 174
    },
    {
        "Altitude(m)": 706933.7865415937,
        "Argument of Periapsis(deg)": 0.010490901092945983,
        "Eccentricity": 0.0,
        "Inclination(deg)": 45.0,
        "Latitude(deg)": 43.493651156195234,
        "Longitude(deg)": 174.96462628408577,
        "Mean Anomaly(deg)": 76.07719954373233,
        "RAAN(deg)": 204.99009689602534,
        "Satellite Name": "Constellation 1 906",
        "Satellite Number": 906,
        "Semi-Major Axis(m)": 7083131.272910544,
        "Time(s)": 175
    },
    {
        "Altitude(m)": 706936.970347623,
        "Argument of Periapsis(deg)": 0.010550849099191389,
        "Eccentricity": 0.0,
        "Inclination(deg)": 45.0,
        "Latitude(deg)": 43.50785965234442,
        "Longitude(deg)": 175.04172101031205,
        "Mean Anomaly(deg)": 76.13790068398227,
        "RAAN(deg)": 204.99004030685978,
        "Satellite Name": "Constellation 1 906",
        "Satellite Number": 906,
        "Semi-Major Axis(m)": 7083131.272910544,
        "Time(s)": 176
    },
    {
        "Altitude(m)": 706940.1416947349,
        "Argument of Periapsis(deg)": 0.010610797105436795,
        "Eccentricity": 0.0,
        "Inclination(deg)": 45.0,
        "Latitude(deg)": 43.52201043941547,
        "Longitude(deg)": 175.1188537355624,
        "Mean Anomaly(deg)": 76.19860182423211,
        "RAAN(deg)": 204.98998371769423,
        "Satellite Name": "Constellation 1 906",
        "Satellite Number": 906,
        "Semi-Major Axis(m)": 7083131.272910544,
        "Time(s)": 177
    },
    {
        "Altitude(m)": 706943.3005642422,
        "Argument of Periapsis(deg)": 0.0106707451116822,
        "Eccentricity": 0.0,
        "Inclination(deg)": 45.0,
        "Latitude(deg)": 43.53610346243394,
        "Longitude(deg)": 175.19602417349185,
        "Mean Anomaly(deg)": 76.25930296448202,
        "RAAN(deg)": 204.98992712852862,
        "Satellite Name": "Constellation 1 906",
        "Satellite Number": 906,
        "Semi-Major Axis(m)": 7083131.272910544,
        "Time(s)": 178
    },
    {
        "Altitude(m)": 706946.4469375141,
        "Argument of Periapsis(deg)": 0.010730693117927606,
        "Eccentricity": 0.0,
        "Inclination(deg)": 45.0,
        "Latitude(deg)": 43.55013866658406,
        "Longitude(deg)": 175.2732325414956,
        "Mean Anomaly(deg)": 76.32000410473195,
        "RAAN(deg)": 204.98987053936307,
        "Satellite Name": "Constellation 1 906",
        "Satellite Number": 906,
        "Semi-Major Axis(m)": 7083131.272910544,
        "Time(s)": 179
    },
    {
        "Altitude(m)": 706949.5807960173,
        "Argument of Periapsis(deg)": 0.01079064112417301,
        "Eccentricity": 0.0,
        "Inclination(deg)": 45.0,
        "Latitude(deg)": 43.56411599721116,
        "Longitude(deg)": 175.35047855212719,
        "Mean Anomaly(deg)": 76.38070524498181,
        "RAAN(deg)": 204.9898139501975,
        "Satellite Name": "Constellation 1 906",
        "Satellite Number": 906,
        "Semi-Major Axis(m)": 7083131.272910544,
        "Time(s)": 180
    },
    {
        "Altitude(m)": 706952.7021212737,
        "Argument of Periapsis(deg)": 0.010850589130418416,
        "Eccentricity": 0.0,
        "Inclination(deg)": 45.0,
        "Latitude(deg)": 43.578035399821815,
        "Longitude(deg)": 175.4277620854882,
        "Mean Anomaly(deg)": 76.4414063852317,
        "RAAN(deg)": 204.98975736103193,
        "Satellite Name": "Constellation 1 906",
        "Satellite Number": 906,
        "Semi-Major Axis(m)": 7083131.272910544,
        "Time(s)": 181
    },
    {
        "Altitude(m)": 706955.810894902,
        "Argument of Periapsis(deg)": 0.01091053713666382,
        "Eccentricity": 0.0,
        "Inclination(deg)": 45.0,
        "Latitude(deg)": 43.59189682008466,
        "Longitude(deg)": 175.50508302113099,
        "Mean Anomaly(deg)": 76.50210752548163,
        "RAAN(deg)": 204.98970077186638,
        "Satellite Name": "Constellation 1 906",
        "Satellite Number": 906,
        "Semi-Major Axis(m)": 7083131.272910544,
        "Time(s)": 182
    },
    {
        "Altitude(m)": 706958.907098572,
        "Argument of Periapsis(deg)": 0.010970485142909228,
        "Eccentricity": 0.0,
        "Inclination(deg)": 45.0,
        "Latitude(deg)": 43.60570020383165,
        "Longitude(deg)": 175.58244123806028,
        "Mean Anomaly(deg)": 76.56280866573155,
        "RAAN(deg)": 204.98964418270077,
        "Satellite Name": "Constellation 1 906",
        "Satellite Number": 906,
        "Semi-Major Axis(m)": 7083131.272910544,
        "Time(s)": 183
    },
    {
        "Altitude(m)": 706961.9907140537,
        "Argument of Periapsis(deg)": 0.011030433149154634,
        "Eccentricity": 0.0,
        "Inclination(deg)": 45.0,
        "Latitude(deg)": 43.619445497058614,
        "Longitude(deg)": 175.65983661473334,
        "Mean Anomaly(deg)": 76.62350980598143,
        "RAAN(deg)": 204.98958759353522,
        "Satellite Name": "Constellation 1 906",
        "Satellite Number": 906,
        "Semi-Major Axis(m)": 7083131.272910544,
        "Time(s)": 184
    },
    {
        "Altitude(m)": 706965.0617231779,
        "Argument of Periapsis(deg)": 0.01109038115540004,
        "Eccentricity": 0.0,
        "Inclination(deg)": 45.0,
        "Latitude(deg)": 43.633132645926764,
        "Longitude(deg)": 175.73726886096395,
        "Mean Anomaly(deg)": 76.68421094623133,
        "RAAN(deg)": 204.98953100436964,
        "Satellite Name": "Constellation 1 906",
        "Satellite Number": 906,
        "Semi-Major Axis(m)": 7083131.272910544,
        "Time(s)": 185
    },
    {
        "Altitude(m)": 706968.1201078566,
        "Argument of Periapsis(deg)": 0.011150329161645444,
        "Eccentricity": 0.0,
        "Inclination(deg)": 45.0,
        "Latitude(deg)": 43.64676159676222,
        "Longitude(deg)": 175.81473819031163,
        "Mean Anomaly(deg)": 76.74491208648124,
        "RAAN(deg)": 204.98947441520409,
        "Satellite Name": "Constellation 1 906",
        "Satellite Number": 906,
        "Semi-Major Axis(m)": 7083131.272910544,
        "Time(s)": 186
    },
    {
        "Altitude(m)": 706971.1658500744,
        "Argument of Periapsis(deg)": 0.01121027716789085,
        "Eccentricity": 0.0,
        "Inclination(deg)": 45.0,
        "Latitude(deg)": 43.66033229605878,
        "Longitude(deg)": 175.89224431149967,
        "Mean Anomaly(deg)": 76.80561322673113,
        "RAAN(deg)": 204.98941782603848,
        "Satellite Name": "Constellation 1 906",
        "Satellite Number": 906,
        "Semi-Major Axis(m)": 7083131.272910544,
        "Time(s)": 187
    },
    {
        "Altitude(m)": 706974.1989318989,
        "Argument of Periapsis(deg)": 0.011270225174136258,
        "Eccentricity": 0.0,
        "Inclination(deg)": 45.0,
        "Latitude(deg)": 43.67384469047764,
        "Longitude(deg)": 175.96978710080464,
        "Mean Anomaly(deg)": 76.86631436698099,
        "RAAN(deg)": 204.98936123687292,
        "Satellite Name": "Constellation 1 906",
        "Satellite Number": 906,
        "Semi-Major Axis(m)": 7083131.272910544,
        "Time(s)": 188
    },
    {
        "Altitude(m)": 706977.2193354671,
        "Argument of Periapsis(deg)": 0.011330173180381662,
        "Eccentricity": 0.0,
        "Inclination(deg)": 45.0,
        "Latitude(deg)": 43.687298726848596,
        "Longitude(deg)": 176.0473664339598,
        "Mean Anomaly(deg)": 76.92701550723092,
        "RAAN(deg)": 204.98930464770734,
        "Satellite Name": "Constellation 1 906",
        "Satellite Number": 906,
        "Semi-Major Axis(m)": 7083131.272910544,
        "Time(s)": 189
    }
]